STARLINK-5121           
1 53993U 22125AF  22306.50001157  .00089632  00000+0  63825-3 0  9997
2 53993  53.2179 315.3229 0003138  16.4225 215.2855 15.73123011  4723
STARLINK-5125           
1 53994U 22125AG  22305.91667824 -.00064132  00000+0 -45513-3 0  9995
2 53994  53.2178 318.2009 0003059  14.6059 155.6327 15.73237371  1305
STARLINK-5097           
1 53995U 22125AH  22306.50001157  .00006729  00000+0  52398-4 0  9999
2 53995  53.2171 315.3167 0003825   5.4334 228.6462 15.73168898  4724
STARLINK-5131           
1 53996U 22125AJ  22305.91667824 -.00032812  00000+0 -22989-3 0  9999
2 53996  53.2183 318.2007 0003169   6.3152 164.5309 15.73230194  1300
STARLINK-5130           
1 53997U 22125AK  22306.58334491  .00071329  00000+0  50982-3 0  9993
2 53997  53.2169 314.9022 0003427  14.7810 332.1056 15.73126517  4731
STARLINK-5128           
1 53998U 22125AL  22306.58334491  .00060103  00000+0  43065-3 0  9996
2 53998  53.2168 314.8957 0003581   5.7915 344.1056 15.73136893  4735
STARLINK-5079           
1 53999U 22125AM  22306.58334491  .00060514  00000+0  43353-3 0  9993
2 53999  53.2173 314.8999 0003456   9.6555 337.8400 15.73138272  4737
STARLINK-5088           
1 54000U 22125AN  22306.25001157 -.00068778  00000+0 -48937-3 0  9996
2 54000  53.2184 316.5495 0002914  11.8037 249.7308 15.73205896  4680
STARLINK-5105           
1 54001U 22125AP  22306.58334491  .00015826  00000+0  11694-3 0  9997
2 54001  53.2169 314.8939 0003291   8.2167 342.8170 15.73202986  4725
STARLINK-5109           
1 54002U 22125AQ  22305.91667824 -.00021397  00000+0 -14822-3 0  9991
2 54002  53.2192 318.1607 0002937  12.5038 180.3138 15.73223666  1300
STARLINK-5114           
1 54003U 22125AR  22305.91667824 -.00031500  00000+0 -22043-3 0  9993
2 54003  53.2182 318.1993 0003309  12.4190 158.9875 15.73235535  1307
STARLINK-5129           
1 54004U 22125AS  22306.58334491  .00175375  00000+0  12331-2 0  9994
2 54004  53.2173 314.8893 0003885   7.6224 345.2026 15.73098597  4726
STARLINK-5135           
1 54005U 22125AT  22306.58334491  .00066938  00000+0  47865-3 0  9990
2 54005  53.2168 314.8922 0003470   6.2086 345.4535 15.73141527  4724
STARLINK-5096           
1 54006U 22125AU  22306.58334491  .00076437  00000+0  54547-3 0  9991
2 54006  53.2174 314.8866 0003081   7.5375 348.3383 15.73137117  4725
STARLINK-5132           
1 54007U 22125AV  22306.58334491  .00073273  00000+0  52327-3 0  9991
2 54007  53.2171 314.8880 0003108  11.8238 341.6235 15.73136956  4727
STARLINK-5145           
1 54008U 22125AW  22306.58334491  .00068979  00000+0  49268-3 0  9999
2 54008  53.2166 314.6235 0002277  17.9413 110.2232 15.73159860  4728
STARLINK-5099           
1 54009U 22125AX  22306.58334491  .00030740  00000+0  22281-3 0  9991
2 54009  53.2172 314.8868 0003390   9.3043 345.3439 15.73178262  4728
STARLINK-5127           
1 54010U 22125AY  22306.58334491  .00066480  00000+0  47594-3 0  9997
2 54010  53.2177 314.6209 0002414  23.2167 106.8829 15.73119692  4725
STARLINK-5124           
1 54011U 22125AZ  22306.58334491  .00077060  00000+0  54995-3 0  9997
2 54011  53.2169 314.8878 0002944  10.1402 343.8686 15.73132572  4722
STARLINK-5126           
1 54012U 22125BA  22306.58334491  .00068731  00000+0  49123-3 0  9990
2 54012  53.2173 314.8804 0003351  12.9136 345.3020 15.73142746  4727
STARLINK-5098           
1 54013U 22125BB  22306.58334491  .00075408  00000+0  53868-3 0  9991
2 54013  53.2169 314.8817 0003569  10.1664 346.8492 15.73116611  4725
STARLINK-5116           
1 54014U 22125BC  22306.58334491  .00012271  00000+0  91853-4 0  9998
2 54014  53.2173 314.8802 0003689  11.6959 345.9328 15.73164652  4727
STARLINK-5055           
1 54015U 22125BD  22306.25001157 -.00022235  00000+0 -15415-3 0  9995
2 54015  53.2175 316.5304 0003403  14.5313 255.9539 15.73229586  4672
FALCON 9 DEB            
1 54016U 22125BE  22305.95925599  .00665392  22777-3  92568-3 0  9995
2 54016  53.2302 314.4360 0009876  37.3069 322.8649 16.05292917  4620
FALCON 9 DEB            
1 54017U 22125BF  22306.49484841  .00908368  47800-3  95809-3 0  9994
2 54017  53.2242 311.3515 0007546  41.6976 318.4634 16.09737756  4713
FALCON 9 DEB            
1 54018U 22125BG  22306.28084605  .00879479  46072-3  82033-3 0  9991
2 54018  53.2214 312.1167 0008497  24.4804 335.6635 16.11563631  4680
FALCON 9 DEB            
1 54019U 22125BH  22306.28310734  .00996581  60975-3  93536-3 0  9999
2 54019  53.2160 312.1294 0006521  20.9672 339.1631 16.11540292  4685
CENTISPACE-1 S5         
1 54020U 22126A   22306.37346974  .00002415  00000+0  55936-3 0  9992
2 54020  54.9981  84.3699 0014245 353.1157   6.9626 14.58111744  3771
CENTISPACE-1 S6         
1 54021U 22126B   22306.36942113  .00000755  00000+0  20154-3 0  9998
2 54021  54.9971  84.3435 0015822 354.8815   5.2030 14.58182862  3769
CZ-11H R/B              
1 54022U 22126C   22305.94299464  .00028228  00000+0  47428-3 0  9994
2 54022  56.1440  80.9658 0339116   3.7498 356.5952 15.07005582  3826
OTB-3-GAZELLE           
1 54023U 22127A   22306.07715030 -.00000043  00000+0  00000+0 0  9990
2 54023  98.3165 304.7863 0012422 218.2053 141.8271 14.41648290  3658
ELECTRON KICK STAGE R/B 
1 54024U 22127B   22306.01990119  .00003767  00000+0  51313-3 0  9990
2 54024  98.2945 305.9145 0139967 301.7164  57.0462 14.72774507  3717
ELECTRON R/B            
1 54025U 22127C   22306.45954334  .00189068  94580-5  16832-2 0  9995
2 54025  98.3332 308.4789 0332413 130.3657 232.7110 15.21529848  3909
GALAXY 33               
1 54026U 22128A   22306.50489843  .00000071  00000+0  00000+0 0  9992
2 54026   0.0185 270.7184 0002422 312.9975 226.8271  1.00270539   485
GALAXY 34               
1 54027U 22128B   22306.29547556  .00000122  00000+0  00000+0 0  9992
2 54027   0.0617  81.4553 0001010 215.3060  63.2523  1.00268285   518
FALCON 9 R/B            
1 54028U 22128C   22305.83757760  .00004696  00000+0  12625-2 0  9991
2 54028  26.8472 176.7308 5936791 206.1012 104.9626  4.12093612   987
ASO-S                   
1 54029U 22129A   22306.37901927  .00000174  00000+0  55195-4 0  9997
2 54029  98.2683 311.4742 0014516 188.1858 171.9106 14.50863838  3538
CZ-2D R/B               
1 54030U 22129B   22306.17556865  .00000390  00000+0  10128-3 0  9990
2 54030  98.1955 311.1469 0019229  45.3899 314.8863 14.54813390  3517
COSMOS 2559 [GLONASS-K] 
1 54031U 22130A   22305.73382612 -.00000070  00000+0  00000+0 0  9991
2 54031  64.7804   0.8815 0007520 224.5609 135.8349  2.13102065   483
FREGAT R/B              
1 54032U 22130B   22304.50739912 -.00000068  00000+0  00000+0 0  9992
2 54032  64.7805   0.9086 0026437 174.1542 185.9322  2.11046172   436
ANGOSAT 2               
1 54033U 22131A   22306.13729936  .00000113  00000+0  00000+0 0  9990
2 54033   0.0291 266.4568 0001800 205.8858   1.7804  1.00120587   218
BLOCK DM-SL R/B         
1 54034U 22131B   22306.15303390 -.00000037  00000+0  00000+0 0  9991
2 54034   0.1211 288.0497 0083447 169.8234 263.0978  0.97747751   204
HJ-2E                   
1 54035U 22132A   22306.25597222  .00004339  00000+0  18243-3 0  9993
2 54035  97.3933 311.5214 0013196 191.9709 349.6121 15.23866065  3085
2022-132B               
1 54036U 22132B   22306.26392361  .00167415  00000+0  46355-2 0  9991
2 54036  97.3556 311.7221 0031268 246.3194 305.2138 15.35830903  3104
2022-132C               
1 54037U 22132C   22306.54859692  .00019993  00000+0  19211-2 0  9996
2 54037  97.6517 311.1028 0189006 104.7725 257.4531 14.80512446  3041
2022-132D               
1 54038U 22132D   22306.55540930  .00040192  00000+0  19278-2 0  9998
2 54038  97.5896 311.9997 0099750 161.9767 198.5035 15.14398639  3117
CZ-2C R/B               
1 54039U 22132E   22306.52911065  .00004805  00000+0  24777-3 0  9999
2 54039  97.2525 310.9828 0048977 139.5218 220.9675 15.15750136  3118
2022-132F               
1 54040U 22132F   22306.51088246  .00039988  00000+0  21805-2 0  9994
2 54040  97.1601 310.6988 0122917 152.8185 207.9624 15.07914795  3096
2022-132G               
1 54041U 22132G   22306.16143759  .00018097  00000+0  15516-2 0  9997
2 54041  97.1919 309.9148 0151127 101.9015 259.9257 14.89062685  3001
YAOGAN-36 02A           
1 54042U 22133A   22306.38008102 -.00051341  00000+0 -20794-2 0  9990
2 54042  34.9991 169.6688 0005508  72.7730 275.2935 15.24022256  2835
YAOGAN-36 02B           
1 54043U 22133B   22306.37859954  .00011978  00000+0  47817-3 0  9995
2 54043  34.9986 169.6718 0009056  95.6821 249.3481 15.24326198  2831
CZ-2D R/B               
1 54044U 22133C   22305.94853009  .00032367  00000+0  12359-2 0  9990
2 54044  34.9985 172.2346 0006751  76.9201 118.4395 15.25662444  2772
YAOGAN-36 02C           
1 54045U 22133D   22305.94481569  .00016363  00000+0  65730-3 0  9999
2 54045  34.9968 172.3636 0010293  86.4452  48.4386 15.24057688  2776
CZ-2D DEB               
1 54046U 22133E   22306.30986882  .00028732  00000+0  11104-2 0  9997
2 54046  34.9983 170.0151 0006301  68.4566 291.6821 15.25286410  2833
2022-134A               
1 54048U 22134A   22303.50000000  .00000003  00000+0  00000+0 0  9999
2 54048  20.5870 297.5870 7797673 196.8490 185.2090  1.18865158   194
2022-134B               
1 54049U 22134B   22304.19603096 -.00000062  00000+0 -50207-3 0  9995
2 54049  26.7324 297.8844 8048682 185.0595 152.6429  1.34295976   217
COSMOS 2560             
1 54050U 22135A   22306.49948209  .00253917  00000+0  11186-2 0  9990
2 54050  96.3437  33.1185 0010270 187.1270 229.5006 15.83807334  2788
STARLINK-5195           
1 54051U 22136A   22306.25001157  .00000551  00000+0  83231-5 0  9995
2 54051  53.2157  85.3655 0001475  59.8541 125.4268 15.73284807  2499
STARLINK-5189           
1 54052U 22136B   22305.91667824 -.00767854  00000+0 -42547-2 0  9997
2 54052  53.2171  86.7159 0001221   2.6157 246.1435 15.80823686  2453
